CCSDS_OMM_VERS = 2.0
CREATION_DATE  = 
ORIGINATOR     = 

OBJECT_NAME    = STARLINK-36551
OBJECT_ID      = 2026-012A
CENTER_NAME    = EARTH
REF_FRAME      = TEME
TIME_SYSTEM    = UTC
MEAN_ELEMENT_THEORY = SGP/SGP4

EPOCH          = 2026-02-17T12:00:01.999296
MEAN_MOTION    = 15.27522597
ECCENTRICITY   = .0001123
INCLINATION    = 43.0000
RA_OF_ASC_NODE = 68.8008
ARG_OF_PERICENTER = 282.2538
MEAN_ANOMALY   = 300.0287

EPHEMERIS_TYPE = 0
CLASSIFICATION_TYPE = U
NORAD_CAT_ID   = 67493
ELEMENT_SET_NO = 999
REV_AT_EPOCH   = 582
BSTAR          = .29156E-2
MEAN_MOTION_DOT = .8071E-3
MEAN_MOTION_DDOT = 0

CCSDS_OMM_VERS = 2.0
CREATION_DATE  = 
ORIGINATOR     = 

OBJECT_NAME    = STARLINK-36396
OBJECT_ID      = 2026-012B
CENTER_NAME    = EARTH
REF_FRAME      = TEME
TIME_SYSTEM    = UTC
MEAN_ELEMENT_THEORY = SGP/SGP4

EPOCH          = 2026-02-17T12:00:01.999296
MEAN_MOTION    = 15.45957958
ECCENTRICITY   = .0001119
INCLINATION    = 43.0008
RA_OF_ASC_NODE = 68.9264
ARG_OF_PERICENTER = 286.2272
MEAN_ANOMALY   = 250.9651

EPHEMERIS_TYPE = 0
CLASSIFICATION_TYPE = U
NORAD_CAT_ID   = 67494
ELEMENT_SET_NO = 999
REV_AT_EPOCH   = 582
BSTAR          = -.40995E-1
MEAN_MOTION_DOT = -.1841875E-1
MEAN_MOTION_DDOT = 0

CCSDS_OMM_VERS = 2.0
CREATION_DATE  = 
ORIGINATOR     = 

OBJECT_NAME    = STARLINK-36550
OBJECT_ID      = 2026-012C
CENTER_NAME    = EARTH
REF_FRAME      = TEME
TIME_SYSTEM    = UTC
MEAN_ELEMENT_THEORY = SGP/SGP4

EPOCH          = 2026-02-17T12:00:01.999296
MEAN_MOTION    = 15.32007726
ECCENTRICITY   = .0000951
INCLINATION    = 43.0004
RA_OF_ASC_NODE = 68.7583
ARG_OF_PERICENTER = 298.9727
MEAN_ANOMALY   = 304.6489

EPHEMERIS_TYPE = 0
CLASSIFICATION_TYPE = U
NORAD_CAT_ID   = 67495
ELEMENT_SET_NO = 999
REV_AT_EPOCH   = 582
BSTAR          = -.62626E-1
MEAN_MOTION_DOT = -.1779343E-1
MEAN_MOTION_DDOT = 0

CCSDS_OMM_VERS = 2.0
CREATION_DATE  = 
ORIGINATOR     = 

OBJECT_NAME    = STARLINK-36534
OBJECT_ID      = 2026-012D
CENTER_NAME    = EARTH
REF_FRAME      = TEME
TIME_SYSTEM    = UTC
MEAN_ELEMENT_THEORY = SGP/SGP4

EPOCH          = 2026-02-17T12:00:01.999296
MEAN_MOTION    = 15.28190931
ECCENTRICITY   = .0000925
INCLINATION    = 42.9997
RA_OF_ASC_NODE = 68.6152
ARG_OF_PERICENTER = 288.2125
MEAN_ANOMALY   = 11.5621

EPHEMERIS_TYPE = 0
CLASSIFICATION_TYPE = U
NORAD_CAT_ID   = 67496
ELEMENT_SET_NO = 999
REV_AT_EPOCH   = 577
BSTAR          = -.36888E-1
MEAN_MOTION_DOT = -.956393E-2
MEAN_MOTION_DDOT = 0

CCSDS_OMM_VERS = 2.0
CREATION_DATE  = 
ORIGINATOR     = 

OBJECT_NAME    = STARLINK-36555
OBJECT_ID      = 2026-012E
CENTER_NAME    = EARTH
REF_FRAME      = TEME
TIME_SYSTEM    = UTC
MEAN_ELEMENT_THEORY = SGP/SGP4

EPOCH          = 2026-02-17T12:00:01.999296
MEAN_MOTION    = 15.27529364
ECCENTRICITY   = .0000946
INCLINATION    = 43.0010
RA_OF_ASC_NODE = 68.6479
ARG_OF_PERICENTER = 286.9547
MEAN_ANOMALY   = 359.0090

EPHEMERIS_TYPE = 0
CLASSIFICATION_TYPE = U
NORAD_CAT_ID   = 67497
ELEMENT_SET_NO = 999
REV_AT_EPOCH   = 582
BSTAR          = .27091E-2
MEAN_MOTION_DOT = .7493E-3
MEAN_MOTION_DDOT = 0

CCSDS_OMM_VERS = 2.0
CREATION_DATE  = 
ORIGINATOR     = 

OBJECT_NAME    = STARLINK-36081
OBJECT_ID      = 2026-012F
CENTER_NAME    = EARTH
REF_FRAME      = TEME
TIME_SYSTEM    = UTC
MEAN_ELEMENT_THEORY = SGP/SGP4

EPOCH          = 2026-02-17T12:00:01.999296
MEAN_MOTION    = 15.35108950
ECCENTRICITY   = .0001024
INCLINATION    = 43.0006
RA_OF_ASC_NODE = 68.6433
ARG_OF_PERICENTER = 270.0894
MEAN_ANOMALY   = 20.3097

EPHEMERIS_TYPE = 0
CLASSIFICATION_TYPE = U
NORAD_CAT_ID   = 67498
ELEMENT_SET_NO = 999
REV_AT_EPOCH   = 577
BSTAR          = -.57501E-1
MEAN_MOTION_DOT = -.1801429E-1
MEAN_MOTION_DDOT = 0

CCSDS_OMM_VERS = 2.0
CREATION_DATE  = 
ORIGINATOR     = 

OBJECT_NAME    = STARLINK-36558
OBJECT_ID      = 2026-012G
CENTER_NAME    = EARTH
REF_FRAME      = TEME
TIME_SYSTEM    = UTC
MEAN_ELEMENT_THEORY = SGP/SGP4

EPOCH          = 2026-02-17T12:00:01.999296
MEAN_MOTION    = 15.35961855
ECCENTRICITY   = .0001077
INCLINATION    = 43.0012
RA_OF_ASC_NODE = 68.6105
ARG_OF_PERICENTER = 269.1627
MEAN_ANOMALY   = 34.8184

EPHEMERIS_TYPE = 0
CLASSIFICATION_TYPE = U
NORAD_CAT_ID   = 67499
ELEMENT_SET_NO = 999
REV_AT_EPOCH   = 582
BSTAR          = -.55497E-1
MEAN_MOTION_DOT = -.1788669E-1
MEAN_MOTION_DDOT = 0

CCSDS_OMM_VERS = 2.0
CREATION_DATE  = 
ORIGINATOR     = 

OBJECT_NAME    = STARLINK-36557
OBJECT_ID      = 2026-012H
CENTER_NAME    = EARTH
REF_FRAME      = TEME
TIME_SYSTEM    = UTC
MEAN_ELEMENT_THEORY = SGP/SGP4

EPOCH          = 2026-02-17T12:00:01.999296
MEAN_MOTION    = 15.27528079
ECCENTRICITY   = .0001234
INCLINATION    = 42.9999
RA_OF_ASC_NODE = 68.4521
ARG_OF_PERICENTER = 295.2314
MEAN_ANOMALY   = 68.5554

EPHEMERIS_TYPE = 0
CLASSIFICATION_TYPE = U
NORAD_CAT_ID   = 67500
ELEMENT_SET_NO = 999
REV_AT_EPOCH   = 582
BSTAR          = .29875E-2
MEAN_MOTION_DOT = .82743E-3
MEAN_MOTION_DDOT = 0

CCSDS_OMM_VERS = 2.0
CREATION_DATE  = 
ORIGINATOR     = 

OBJECT_NAME    = STARLINK-36433
OBJECT_ID      = 2026-012J
CENTER_NAME    = EARTH
REF_FRAME      = TEME
TIME_SYSTEM    = UTC
MEAN_ELEMENT_THEORY = SGP/SGP4

EPOCH          = 2026-02-17T12:00:01.999296
MEAN_MOTION    = 15.27517405
ECCENTRICITY   = .0000915
INCLINATION    = 43.0003
RA_OF_ASC_NODE = 68.4005
ARG_OF_PERICENTER = 293.4405
MEAN_ANOMALY   = 91.5636

EPHEMERIS_TYPE = 0
CLASSIFICATION_TYPE = U
NORAD_CAT_ID   = 67501
ELEMENT_SET_NO = 999
REV_AT_EPOCH   = 582
BSTAR          = .30643E-2
MEAN_MOTION_DOT = .84872E-3
MEAN_MOTION_DDOT = 0

CCSDS_OMM_VERS = 2.0
CREATION_DATE  = 
ORIGINATOR     = 

OBJECT_NAME    = STARLINK-36554
OBJECT_ID      = 2026-012K
CENTER_NAME    = EARTH
REF_FRAME      = TEME
TIME_SYSTEM    = UTC
MEAN_ELEMENT_THEORY = SGP/SGP4

EPOCH          = 2026-02-17T12:00:01.999296
MEAN_MOTION    = 15.35049593
ECCENTRICITY   = .0001431
INCLINATION    = 43.0001
RA_OF_ASC_NODE = 68.3822
ARG_OF_PERICENTER = 273.8706
MEAN_ANOMALY   = 122.2699

EPHEMERIS_TYPE = 0
CLASSIFICATION_TYPE = U
NORAD_CAT_ID   = 67502
ELEMENT_SET_NO = 999
REV_AT_EPOCH   = 577
BSTAR          = -.58454E-1
MEAN_MOTION_DOT = -.1825317E-1
MEAN_MOTION_DDOT = 0

CCSDS_OMM_VERS = 2.0
CREATION_DATE  = 
ORIGINATOR     = 

OBJECT_NAME    = STARLINK-36552
OBJECT_ID      = 2026-012L
CENTER_NAME    = EARTH
REF_FRAME      = TEME
TIME_SYSTEM    = UTC
MEAN_ELEMENT_THEORY = SGP/SGP4

EPOCH          = 2026-02-17T12:00:01.999296
MEAN_MOTION    = 15.27493834
ECCENTRICITY   = .0001601
INCLINATION    = 42.9995
RA_OF_ASC_NODE = 68.2621
ARG_OF_PERICENTER = 293.2000
MEAN_ANOMALY   = 148.4246

EPHEMERIS_TYPE = 0
CLASSIFICATION_TYPE = U
NORAD_CAT_ID   = 67503
ELEMENT_SET_NO = 999
REV_AT_EPOCH   = 582
BSTAR          = .28821E-2
MEAN_MOTION_DOT = .79699E-3
MEAN_MOTION_DDOT = 0

CCSDS_OMM_VERS = 2.0
CREATION_DATE  = 
ORIGINATOR     = 

OBJECT_NAME    = STARLINK-36512
OBJECT_ID      = 2026-012M
CENTER_NAME    = EARTH
REF_FRAME      = TEME
TIME_SYSTEM    = UTC
MEAN_ELEMENT_THEORY = SGP/SGP4

EPOCH          = 2026-02-17T12:00:01.999296
MEAN_MOTION    = 15.32383676
ECCENTRICITY   = .0001481
INCLINATION    = 42.9995
RA_OF_ASC_NODE = 68.1971
ARG_OF_PERICENTER = 290.3013
MEAN_ANOMALY   = 179.3441

EPHEMERIS_TYPE = 0
CLASSIFICATION_TYPE = U
NORAD_CAT_ID   = 67504
ELEMENT_SET_NO = 999
REV_AT_EPOCH   = 582
BSTAR          = -.6258E-1
MEAN_MOTION_DOT = -.179757E-1
MEAN_MOTION_DDOT = 0

