STARLINK-36551          
1 67493U 26012A   26048.50002314  .00080710  00000+0  29156-2 0  9995
2 67493  43.0000  68.8008 0001123 282.2538 300.0287 15.27522597  5825
STARLINK-36396          
1 67494U 26012B   26048.50002314 -.01841875  00000+0 -40995-1 0  9999
2 67494  43.0008  68.9264 0001119 286.2272 250.9651 15.45957958  5824
STARLINK-36550          
1 67495U 26012C   26048.50002314 -.01779343  00000+0 -62626-1 0  9995
2 67495  43.0004  68.7583 0000951 298.9727 304.6489 15.32007726  5822
STARLINK-36534          
1 67496U 26012D   26048.50002314 -.00956393  00000+0 -36888-1 0  9998
2 67496  42.9997  68.6152 0000925 288.2125  11.5621 15.28190931  5770
STARLINK-36555          
1 67497U 26012E   26048.50002314  .00074930  00000+0  27091-2 0  9992
2 67497  43.0010  68.6479 0000946 286.9547 359.0090 15.27529364  5828
STARLINK-36081          
1 67498U 26012F   26048.50002314 -.01801429  00000+0 -57501-1 0  9995
2 67498  43.0006  68.6433 0001024 270.0894  20.3097 15.35108950  5773
STARLINK-36558          
1 67499U 26012G   26048.50002314 -.01788669  00000+0 -55497-1 0  9998
2 67499  43.0012  68.6105 0001077 269.1627  34.8184 15.35961855  5822
STARLINK-36557          
1 67500U 26012H   26048.50002314  .00082743  00000+0  29875-2 0  9990
2 67500  42.9999  68.4521 0001234 295.2314  68.5554 15.27528079  5828
STARLINK-36433          
1 67501U 26012J   26048.50002314  .00084872  00000+0  30643-2 0  9991
2 67501  43.0003  68.4005 0000915 293.4405  91.5636 15.27517405  5828
STARLINK-36554          
1 67502U 26012K   26048.50002314 -.01825317  00000+0 -58454-1 0  9991
2 67502  43.0001  68.3822 0001431 273.8706 122.2699 15.35049593  5775
STARLINK-36552          
1 67503U 26012L   26048.50002314  .00079699  00000+0  28821-2 0  9999
2 67503  42.9995  68.2621 0001601 293.2000 148.4246 15.27493834  5820
STARLINK-36512          
1 67504U 26012M   26048.50002314 -.01797570  00000+0 -62580-1 0  9997
2 67504  42.9995  68.1971 0001481 290.3013 179.3441 15.32383676  5824
